OBJECT_NAME,OBJECT_ID,EPOCH,MEAN_MOTION,ECCENTRICITY,INCLINATION,RA_OF_ASC_NODE,ARG_OF_PERICENTER,MEAN_ANOMALY,EPHEMERIS_TYPE,CLASSIFICATION_TYPE,NORAD_CAT_ID,ELEMENT_SET_NO,REV_AT_EPOCH,BSTAR,MEAN_MOTION_DOT,MEAN_MOTION_DDOT
ONEWEB-0323,2021-075AH,2026-06-10T11:37:30.840672,13.12443727,.0002373,87.8947,351.9826,85.3032,274.8368,0,U,49106,999,23367,-.91662E-3,-.317E-5,0
ONEWEB-0329,2021-075AJ,2026-06-10T11:59:13.134912,13.17648590,.0002,87.9137,7.1994,89.0459,271.0902,0,U,49107,999,23270,.48775E-4,.32E-6,0
ONEWEB-0330,2021-075AK,2026-06-10T12:33:27.352800,13.17648905,.0001993,87.9139,7.2148,93.3249,266.8111,0,U,49108,999,23274,-.135E-3,-.4E-6,0
RSW-01,2021-076A,2026-06-10T11:52:10.499808,13.42856987,.0017588,86.4101,160.2097,83.6767,276.6380,0,U,49112,999,23498,-.25205E-3,-.128E-5,0
PAYLOAD B,2021-076B,2026-06-10T12:56:44.928960,14.09463994,.0017438,86.4026,85.6917,223.5040,136.4767,0,U,49113,999,24649,.73939E-4,.148E-5,0
RSW-02,2021-076C,2026-06-10T13:24:34.504416,13.42853355,.0021153,86.4101,160.1676,80.9565,279.3973,0,U,49114,999,23499,-.12567E-3,-.56E-6,0
TJS-7,2021-077A,2026-06-10T11:06:26.390016,1.00270683,.0002298,0.4902,86.1738,336.2199,263.5762,0,U,49115,999,948,0,-.106E-5,0
GAOFEN-5 02,2021-079A,2026-06-10T12:49:07.379616,14.57691200,.0001868,98.2603,235.8897,48.3028,311.8330,0,U,49122,999,25311,.10523E-3,.434E-5,0
CHINASAT 9B,2021-080A,2026-06-10T12:03:45.892800,1.00271961,.0001474,0.0378,97.7585,8.3284,75.1460,0,U,49125,999,1758,0,-.295E-5,0
STARLINK-3090,2021-082C,2026-06-10T10:26:41.864064,14.98328646,.000271,70.0003,60.4873,267.8117,92.2732,0,U,49132,999,25987,.11913E-4,.49E-6,0
STARLINK-3077,2021-082D,2026-06-10T10:50:44.571264,14.98329228,.0002979,70.0002,60.5710,269.4100,90.6718,0,U,49133,999,25987,.8767E-5,.12E-6,0
STARLINK-3078,2021-082E,2026-06-10T02:44:03.748128,14.98328838,.0002923,70.0001,61.4259,264.8695,95.2130,0,U,49134,999,26102,.13392E-4,.67E-6,0
STARLINK-3073,2021-082F,2026-06-10T00:25:12.166752,14.98329586,.00027574,70.0004,21.6476,266.4594,93.6249,0,U,49135,999,26080,-.24830259E-4,-.389E-5,0
STARLINK-3055,2021-082H,2026-06-10T09:26:29.823936,14.97521315,.0002955,70.0001,41.8001,269.1212,90.9608,0,U,49137,999,26033,-.38924E-5,-.138E-5,0
STARLINK-3058,2021-082J,2026-06-10T10:38:43.621152,14.98329530,.0002832,70.0001,60.5982,268.4372,91.6463,0,U,49138,999,25987,.52824E-5,-.3E-6,0
STARLINK-3057,2021-082K,2026-06-10T12:00:02.000160,15.06026102,.0003449,70.0005,20.1920,274.1983,74.0958,0,U,49139,999,575,.58146E-2,.85926E-3,0
STARLINK-3093,2021-082M,2026-06-10T10:32:43.283040,14.98337507,.0002594,70.0004,60.6132,262.4240,97.6624,0,U,49141,999,26107,.17946E-4,.121E-5,0
STARLINK-3109,2021-082P,2026-06-10T09:20:39.499584,14.97521535,.0002992,70.0000,41.8142,270.0174,90.0641,0,U,49143,999,26144,.29246E-4,.249E-5,0
STARLINK-3100,2021-082Q,2026-06-10T10:20:41.780832,14.98323995,.0003032,70.0005,60.6142,269.8479,90.2332,0,U,49144,999,25987,-.11357E-3,-.1448E-4,0
STARLINK-3119,2021-082R,2026-06-09T23:31:07.154688,14.98332158,.00030372,69.9995,21.7467,270.9206,89.1605,0,U,49145,999,26078,.65082867E-4,.684E-5,0
STARLINK-3116,2021-082S,2026-06-10T09:14:39.647040,14.97517784,.0002622,69.9997,41.8283,268.8174,91.2685,0,U,49146,999,26148,.11312E-3,.123E-4,0
STARLINK-3071,2021-082T,2026-06-10T07:49:49.351296,14.98329644,.0002869,69.9998,20.8913,268.4863,91.5968,0,U,49147,999,26084,-.82665E-5,-.192E-5,0
STARLINK-3048,2021-082U,2026-06-10T09:02:37.591008,14.97522978,.0002243,70.0002,41.8278,260.7680,99.3225,0,U,49148,999,26032,.32587E-5,-.54E-6,0
STARLINK-3102,2021-082X,2026-06-10T00:55:15.514464,14.98317660,.00030129,69.9997,21.6065,269.7498,90.3316,0,U,49151,999,26199,.81788248E-4,.883E-5,0
STARLINK-3072,2021-082Z,2026-06-10T00:43:13.699488,14.98329151,.00024894,70.0001,21.6338,262.5467,97.5409,0,U,49153,999,26200,.66670318E-4,.703E-5,0
STARLINK-3068,2021-082AA,2026-06-10T08:56:38.031360,14.97513529,.000283,69.9997,41.8413,276.1406,83.9430,0,U,49154,999,26140,.10314E-3,.1113E-4,0
STARLINK-3060,2021-082AB,2026-06-10T08:37:52.572000,14.98332634,.0002929,70.0004,20.7938,268.4289,91.6534,0,U,49155,999,26192,.43493E-4,.426E-5,0
STARLINK-3085,2021-082AC,2026-06-10T08:07:50.782080,14.98328962,.000291,69.9998,20.8481,269.5289,90.5537,0,U,49156,999,26192,.39186E-5,-.46E-6,0
STARLINK-3051,2021-082AD,2026-06-10T09:20:31.962912,15.05617250,.0002612,69.9988,35.5646,173.6259,186.4937,0,U,49157,999,26158,.44672E-3,.6364E-4,0
STARLINK-3083,2021-082AE,2026-06-09T16:31:36.753312,15.76492245,.00020194,69.9619,274.4115,273.0316,87.0651,0,U,49158,999,26449,.47191814E-3,.75495E-3,0
STARLINK-3056,2021-082AF,2026-06-10T10:02:40.554816,14.98338066,.0003007,70.0004,60.6562,267.3971,92.6844,0,U,49159,999,26096,.29968E-3,.3485E-4,0
STARLINK-3095,2021-082AG,2026-06-10T03:20:06.556128,14.98329679,.0002912,70.0001,61.3426,266.9864,93.0962,0,U,49160,999,26089,.61249E-4,.638E-5,0
STARLINK-3080,2021-082AH,2026-06-10T03:26:08.401056,14.98326941,.000297,70.0000,61.3281,263.0582,97.0239,0,U,49161,999,26090,.17515E-3,.1997E-4,0
STARLINK-3088,2021-082AK,2026-06-10T02:13:49.783584,14.97524601,.0002971,69.9998,42.5569,271.5953,88.4866,0,U,49163,999,26144,.11984E-3,.1308E-4,0
STARLINK-3106,2021-082AL,2026-06-10T08:50:14.233056,14.98331726,.0003061,69.9999,40.7794,269.3228,90.7581,0,U,49164,999,26151,.22145E-4,.171E-5,0
STARLINK-3052,2021-082AM,2026-06-10T11:14:46.677120,14.98330724,.0002833,70.0000,60.5431,268.9762,91.1073,0,U,49165,999,26107,.49814E-4,.501E-5,0
STARLINK-3089,2021-082AN,2026-06-10T02:07:49.144800,14.97522265,.0002982,69.9995,42.5708,268.3485,91.7332,0,U,49166,999,26148,.56724E-4,.571E-5,0
STARLINK-3054,2021-082AP,2026-06-10T11:02:43.605024,14.98338557,.0003719,70.0005,60.5446,273.0971,86.9762,0,U,49167,999,26107,.53861E-4,.55E-5,0
STARLINK-3046,2021-082AR,2026-06-10T08:44:13.966656,14.98329982,.0002876,69.9998,40.8028,267.9588,92.1242,0,U,49169,999,26035,.15206E-4,.88E-6,0
STARLINK-3107,2021-082AT,2026-06-10T02:33:52.193376,15.14349814,.0003849,69.9933,49.6697,178.4203,181.6977,0,U,49171,999,26127,.10651E-2,.19518E-3,0
STARLINK-3045,2021-082AV,2026-06-10T02:01:39.886752,14.98331148,.0002711,69.9995,41.4899,269.9303,90.1545,0,U,49173,999,26031,.524E-4,.532E-5,0
STARLINK-3087,2021-082AX,2026-06-10T09:15:41.753088,14.97543373,.0002881,70.0011,41.9553,270.2827,89.8002,0,U,49175,999,26032,-.35806E-3,-.4276E-4,0
STARLINK-3069,2021-082AY,2026-06-10T00:49:13.746432,14.98330644,.00029868,69.9999,21.6196,272.2845,87.7972,0,U,49176,999,26079,.162482E-3,.1846E-4,0
STARLINK-3103,2021-082AZ,2026-06-10T07:43:48.708192,14.98330927,.0003054,69.9992,20.9057,271.4084,88.6725,0,U,49177,999,26203,.54376E-4,.556E-5,0
STARLINK-3086,2021-082BA,2026-06-10T03:32:07.929600,14.98328482,.0002727,70.0004,61.3269,268.4365,91.6481,0,U,49178,999,26098,.25994E-4,.217E-5,0
STARLINK-3043,2021-082BB,2026-06-10T01:01:15.210624,14.98329169,.00026537,69.9995,21.5931,267.0898,92.9957,0,U,49179,999,26079,.793863E-5,.2E-7,0
STARLINK-3059,2021-082BD,2026-06-10T03:08:07.106784,14.98311359,.0002883,70.0001,61.3828,273.9860,86.0969,0,U,49181,999,26101,.15175E-3,.1717E-4,0
ONEWEB-0292,2021-083A,2026-06-10T03:46:23.497824,13.13469571,.0001959,87.8940,321.6387,91.0881,269.0473,0,U,49186,999,23000,-.75592E-3,-.263E-5,0
ONEWEB-0303,2021-083B,2026-06-10T00:28:20.686368,13.18686598,.00020011,87.9161,336.8829,89.1687,270.9674,0,U,49187,999,22903,-.98338053E-4,-.26E-6,0
ONEWEB-0306,2021-083C,2026-06-10T05:41:33.463104,13.18686282,.0001675,87.9167,336.8271,96.5740,263.5583,0,U,49188,999,22910,.11427E-3,.58E-6,0
ONEWEB-0307,2021-083D,2026-06-10T03:37:52.053888,13.13469052,.00019399,87.8950,321.6366,94.1521,265.9830,0,U,49189,999,23000,-.35000314E-3,-.115E-5,0
ONEWEB-0320,2021-083E,2026-06-10T11:38:28.038336,13.18685576,.0001792,87.9157,336.7965,92.2797,267.8540,0,U,49190,999,22909,.50854E-4,.33E-6,0
ONEWEB-0321,2021-083F,2026-06-10T07:22:20.440992,13.20771932,.0001721,87.9190,275.8060,105.8046,254.3277,0,U,49191,999,23592,-.95347E-5,.9E-7,0
ONEWEB-0322,2021-083G,2026-06-10T03:31:46.219872,13.13469260,.00013632,87.8947,321.6379,93.3522,266.7763,0,U,49192,999,22999,-.98758976E-4,-.23E-6,0
ONEWEB-0324,2021-083H,2026-06-10T05:31:49.710144,13.18684291,.0001919,87.9167,336.8338,97.4654,262.6696,0,U,49193,999,22908,.76431E-4,.43E-6,0
ONEWEB-0325,2021-083J,2026-06-10T05:36:41.686848,13.18685012,.0001825,87.9159,336.8422,89.0135,271.1206,0,U,49194,999,22909,.25632E-4,.23E-6,0
ONEWEB-0326,2021-083K,2026-06-10T11:26:31.937856,13.18684884,.0002053,87.9166,336.7910,86.0587,274.0780,0,U,49195,999,22911,.15654E-3,.75E-6,0
ONEWEB-0327,2021-083L,2026-06-10T11:26:07.600704,13.18685174,.0002046,87.9158,336.7959,80.8621,279.2743,0,U,49196,999,22913,-.21781E-3,-.73E-6,0
ONEWEB-0328,2021-083M,2026-06-10T12:25:37.546752,13.13469255,.0001887,87.8957,321.5367,98.7640,261.3703,0,U,49197,999,23002,.80802E-3,.308E-5,0
ONEWEB-0331,2021-083N,2026-06-10T05:48:50.184864,13.18690633,.0002179,87.9164,336.8315,88.8560,271.2821,0,U,49198,999,22909,.15814E-2,.636E-5,0
ONEWEB-0333,2021-083P,2026-06-10T12:18:18.627840,13.13469341,.0001808,87.8947,321.5646,93.4269,266.7066,0,U,49199,999,23003,.10915E-2,.411E-5,0
ONEWEB-0334,2021-083Q,2026-06-10T07:47:46.784256,13.20773177,.0001047,87.9186,275.8144,113.4000,246.7244,0,U,49200,999,23588,.10967E-3,.58E-6,0
ONEWEB-0335,2021-083R,2026-06-09T23:23:08.103840,13.13470056,.00020022,87.8948,321.6689,93.3050,266.8308,0,U,49201,999,22997,.9251842E-3,.351E-5,0
ONEWEB-0336,2021-083S,2026-06-10T11:29:32.856864,13.13470521,.0002263,87.8948,321.5640,94.8662,265.2725,0,U,49202,999,23003,-.47301E-3,-.16E-5,0
ONEWEB-0337,2021-083T,2026-06-10T11:43:59.104128,13.13470756,.0001991,87.8944,321.5681,98.4193,261.7162,0,U,49203,999,23003,.18893E-4,.2E-6,0
ONEWEB-0338,2021-083U,2026-06-10T07:10:12.202176,13.20776943,.0001693,87.9182,275.8220,104.3184,255.8138,0,U,49204,999,23590,.36413E-2,.1494E-4,0
